    PK10C010  2028 10 19.3825  5.265450  0.258745    3.6982  141.8859    9.1281  20210425   9.5  4.0  P/2010 C1 (Scotti)                                       MPC 75008
    PK10D020  2027 07 12.9179  3.687686  0.450964  120.0530  319.8913   57.0853  20210425  16.0  4.0  P/2010 D2 (WISE)                                         MPC 75008
    PK10E020  2010 04  1.6352  2.419205  0.719962    8.3636  177.8238   15.3980  20210425  14.0  4.0  P/2010 E2 (Jarnac)                                       MPC 75009
    PK10H020  2017 09  8.7302  3.083099  0.195807  128.1348   64.1997   14.2738  20210425   6.0  4.0  P/2010 H2 (Vales)                                        MPC 72851
    PK10H030  2021 02  7.9646  0.044404  0.985383   26.1397   77.1002   23.0857  20210425  20.0  2.0  P/2010 H3 (SOHO)                                         MPC 70361
    PK10H040  2027 05 21.6736  4.830143  0.267213  179.5390   44.7420    2.3186  20210425  10.5  4.0  P/2010 H4 (Scotti)                                       MPC 73463
    PK10H050  2029 06  4.8439  6.063620  0.153291  175.2067   24.8060   14.0640  20210425  13.0  2.0  P/2010 H5 (Scotti)                                       MPC 74637
    PK10J030  2010 08 29.7499  2.449755  0.726967  157.5956  106.4162   13.2867  20210425  11.0  4.0  P/2010 J3 (McMillan)                                     MPC 98558
    PK10J81C  2011 04 19.8038  1.808862  0.776956   12.4327   30.8474   38.7447  20210425   9.0  4.0  P/2010 JC81 (WISE)                                       MPC 84315
    PK10T020  2024 03 23.4738  3.749254  0.321510  353.4462   58.9173    7.9009  20210425  11.5  4.0  P/2010 T2 (PANSTARRS)                                    MPC 74248
    PK10T20O  2022 11 19.8900  5.510176  0.054912  266.8061   43.2942    2.4790  20210425   9.0  4.0  P/2010 TO20 (LINEAR-Grauer)                              MPC 98558
    PK10U010  2026 09  4.9266  4.893388  0.248340   85.9493  280.7100    8.2149  20210425   9.5  4.0  P/2010 U1 (Boattini)                                     MPC 82316
    CK10U030  2019 02 25.6630  8.444219  0.996322   88.0640   43.0237   55.5268  20210425   1.0  4.0  C/2010 U3 (Boattini)                                     MPC119994
    PK10U55H  2028 06  7.3086  2.904462  0.563391  225.1772  232.9572    8.0425  20210425  11.0  4.0  P/2010 UH55 (Spacewatch)                                 MPC 79021
    PK10W00K  2024 07 22.1390  1.786397  0.689922   40.9752   11.3214   11.4009  20210425  14.5  2.0  P/2010 WK (LINEAR)                                       MPC 75009
    PK11A020  2021 12  1.6489  1.554552  0.499471   94.5174   54.6765    4.4750  20210425  16.5  4.0  P/2011 A2 (Scotti)                                       MPC 82317
    PK11C020  2011 12 30.9173  5.420319  0.268902  160.9276   12.1245   10.8849  20210425   9.0  4.0  P/2011 C2 (Gibbs)                                        MPC 84021
    PK11FE3R  2029 02 14.1304  3.766882  0.450757  350.0994  190.9510   15.9828  20210425  14.0  2.0  P/2011 FR143 (Lemmon)                                    MPC 79866
    PK11J15B  2012 01 23.4321  5.019556  0.317676  111.0375  153.5859   19.1471  20210425   9.0  4.0  P/2011 JB15 (Spacewatch-Boattini)                        MPC 82317
    CK11K36P  2016 05 28.0561  4.880761  0.874799  180.6973  173.2823   18.9857  20210425   4.5  4.0  C/2011 KP36 (Spacewatch)                                 MPEC 2020-AA5
    PK11N010  2028 01  1.9514  2.849837  0.543964  330.3360   77.5963   35.7224  20210425  11.5  4.0  P/2011 N1 (ASH)                                          MPC 87913
    PK11N01O  2024 01 16.0770  1.244627  0.774711  263.8019  295.7980   15.2484  20210425  15.0  4.0  P/2011 NO1 (Elenin)                                      MPC 75714
    PK11P010  2030 12 15.8936  5.022465  0.327338  348.9259    4.2377    5.6594  20210425   9.0  4.0  P/2011 P1 (McNaught)                                     MPC 82318
    PK11Q030  2022 08 19.4445  2.322746  0.532676  310.9871   32.0263    6.0573  20210425  13.5  4.0  P/2011 Q3 (McNaught)                                     MPC 77806
    PK11S010  2014 08 11.1686  6.864605  0.200478  192.4547  218.8837    2.6845  20210425   8.0  4.0  P/2011 S1 (Gibbs)                                        MPC 98558
    PK11UD4A  2025 02 18.1213  2.077943  0.629324   32.4352   40.4088   10.4413  20210425  17.5  4.0  P/2011 UA134 (Spacewatch-PANSTARRS)                      MPC 79022
    PK11V010  2018 10  2.2359  1.732610  0.550598  269.2802   46.8341    7.3760  20210425  15.5  4.0  P/2011 V1 (Boattini)                                     MPC 77406
    PK11W010  2022 02  7.7124  3.322116  0.287237  282.7421  161.7895    3.7186  20210425  11.5  4.0  P/2011 W1 (PANSTARRS)                                    MPC 82718
    PK11Y020  2027 10  5.9673  1.813277  0.709397  131.9171  309.3663    6.3717  20210425  15.0  4.0  P/2011 Y2 (Boattini)                                     MPC 79342
    PK12B010  2013 07 18.4102  3.855770  0.409440  162.5565   36.2082    7.6135  20210425   9.0  4.0  P/2012 B1 (PANSTARRS)                                    MPC 94669
    PK12C030  2011 10  6.7469  3.605925  0.630111  344.9542  135.3677    9.0920            13.0  4.0  P/2012 C3 (PANSTARRS)                                    MPC 78590
    PK12F020  2029 03 16.9969  2.896494  0.542419   33.2844  227.0416   14.7187  20210425  12.0  4.0  P/2012 F2 (PANSTARRS)                                    MPC 84931
    PK12G010  2012 06  1.4325  2.584166  0.380722  286.1149  282.5440   11.6925            15.0  4.0  P/2012 G1 (PANSTARRS)                                    MPC 79344
    PK12K030  2019 08 17.5168  2.090568  0.423379  172.1795  125.8086   13.1946  20210425  15.0  4.0  P/2012 K3 (Gibbs)                                        MPC 80898
    PK12N00J  2012 06 13.5100  1.292550  0.847232  338.3444  315.5448   84.6634  20210425  14.5  4.0  P/2012 NJ (La Sagra)                                     MPC 88326
    PK12O010  2019 03  2.5430  1.435422  0.594579  238.2357   91.9781    7.4317  20210425  17.5  4.0  P/2012 O1 (McNaught)                                     MPC 81470
    PK12O020  2019 05  6.1415  1.693303  0.532729  183.4276  120.6796   24.4858  20210425  17.0  4.0  P/2012 O2 (McNaught)                                     MPC 80899
    PK12O030  2022 05 29.7565  1.614511  0.646994  344.7282  336.4129   16.6157  20210425  16.5  4.0  P/2012 O3 (McNaught)                                     MPC 82720
    PK12S020  2021 10 31.7588  1.362473  0.691300  312.4837   51.1896    8.6860  20210425  17.0  4.0  P/2012 S2 (La Sagra)                                     MPC 82720
    PK12T020  2027 01 15.1692  4.811154  0.161181  310.4457   73.7239   12.5581  20210425  10.0  4.0  P/2012 T2 (PANSTARRS)                                    MPC 82320
    PK12T030  2027 08  6.0414  2.354589  0.617251  195.4665  114.4053    9.5676  20210425  15.0  4.0  P/2012 T3 (PANSTARRS)                                    MPC 80900
    PK12T08K  2021 10 26.0407  2.995462  0.274211  128.0062  288.9647    6.3402  20210425  13.0  4.0  P/2012 TK8 (Tenagra)                                     MPC 87914
    PK12U020  2012 11  8.8827  3.582168  0.498298  228.2786  185.2912   10.7532  20210425  12.5  4.0  P/2012 U2 (PANSTARRS)                                    MPC 82720
    PK12U27S  2024 10 22.0088  1.820642  0.647602    0.8070   49.1774   39.3404  20210425  13.5  4.0  P/2012 US27 (Siding Spring)                              MPC 84024
    PK12W34A  2023 07  1.4935  3.103235  0.345482  354.1602   94.2182    6.0962  20210425  13.5  4.0  P/2012 WA34 (Lemmon-PANSTARRS)                           MPC 82721
    PK13A76L  2029 07  1.4639  2.038668  0.686221   27.0987  145.9779  144.8387  20210425  16.0  4.0  P/2013 AL76 (Catalina)                                   MPC 82721
    PK13G010  2013 12 13.2920  3.356170  0.512855   51.4313  221.3873    5.4653  20210425  11.0  4.0  P/2013 G1 (Kowalski)                                     MPC 91612
    PK13G040  2022 06 19.4853  2.621654  0.409527  214.6885  339.6394    5.9163  20210425  15.0  4.0  P/2013 G4 (PANSTARRS)                                    MPC 84025
    PK13J020  2013 08 28.3587  2.130633  0.657620   37.7493  289.4189   15.5319  20210425  13.0  4.0  P/2013 J2 (McNaught)                                     MPC 91613
    PK13N030  2014 02 15.8787  3.006529  0.593230  323.8822   17.4785    2.1736  20210425  13.0  4.0  P/2013 N3 (PANSTARRS)                                    MPC 86229
    PK13N050  2013 07  3.0703  1.821632  0.732060  176.8936  187.1616   23.4339  20210425  17.0  4.0  P/2013 N5 (PANSTARRS)                                    MPC 85834
    PK13P010  2013 03  2.0807  3.377530  0.605938  138.1420  160.6032   18.7229  20210425  12.0  4.0  P/2013 P1 (PANSTARRS)                                    MPC 85834
    PK13R030  2018 12  6.9578  2.198852  0.275203   11.1677  342.0008    0.8653  20210425  14.0  4.0  P/2013 R3 (Catalina-PANSTARRS)                           MPC 94671
    PK13R03a  2018 12  6.8353  2.198842  0.275173   11.2067  341.9677    0.8647  20210425   9.0  4.0  P/2013 R3-A (Catalina-PANSTARRS)                         unp
    PK13R03b  2018 12  7.0229  2.198862  0.275218   11.1416  342.0235    0.8659  20210425   9.0  4.0  P/2013 R3-B (Catalina-PANSTARRS)                         MPEC 2015-M77
    PK13T010  2027 10 10.4875  2.204463  0.623845  346.0939   10.0843   24.2843  20210425  16.5  4.0  P/2013 T1 (PANSTARRS)                                    MPC 85835
    PK13T020  2019 11 30.6476  1.740730  0.501225  345.5047    0.8098    9.4563  20210425  16.0  4.0  P/2013 T2 (Schwartz)                                     MPC 86643
    PK13W010  2020 09 10.2921  1.421291  0.592780    1.2832  117.8478    4.6955  20210425  17.5  4.0  P/2013 W1 (PANSTARRS)                                    MPC 91613
    CK13X010  2016 04 19.4401  1.325187  1.000521  165.2008  131.5718  163.1942  20210425  10.5  2.0  C/2013 X1 (PANSTARRS)                                    MPC111767
